******** Week 216 almanac for PRN-18 ********
ID:                         18
Health:                     000
Eccentricity:               0.3243923187E-002
Time of Applicability(s):  319488.0000
Orbital Inclination(rad):   0.9738524969
Rate of Right Ascen(r/s):  -0.7714607059E-008
SQRT(A)  (m 1/2):           5153.631348
Right Ascen at Week(rad):   0.2269576258E+001
Argument of Perigee(rad):   3.122787158
Mean Anom(rad):             0.1585307725E+001
Af0(s):                    -0.2889633179E-003
Af1(s/s):                  -0.1455191523E-010
week:                        216

******** Week 216 almanac for PRN-19 ********
ID:                         19
Health:                     000
Eccentricity:               0.9442329407E-002
Time of Applicability(s):  319488.0000
Orbital Inclination(rad):   0.9730555459
Rate of Right Ascen(r/s):  -0.8126052768E-008
SQRT(A)  (m 1/2):           5153.572266
Right Ascen at Week(rad):   0.1309840204E+001
Argument of Perigee(rad):   2.308604384
Mean Anom(rad):            -0.5542441864E+000
Af0(s):                     0.3242492676E-003
Af1(s/s):                   0.3637978807E-011
week:                        216

******** Week 216 almanac for PRN-20 ********
ID:                         20
Health:                     000
Eccentricity:               0.4060268402E-002
Time of Applicability(s):  319488.0000
Orbital Inclination(rad):   0.9489253091
Rate of Right Ascen(r/s):  -0.7863184676E-008
SQRT(A)  (m 1/2):           5153.502441
Right Ascen at Week(rad):   0.3129729394E+001
Argument of Perigee(rad):  -2.878247550
Mean Anom(rad):             0.2216027370E+001
Af0(s):                     0.4301071167E-003
Af1(s/s):                  -0.3637978807E-011
week:                        216

******** Week 216 almanac for PRN-21 ********
ID:                         21
Health:                     000
Eccentricity:               0.2464675903E-001
Time of Applicability(s):  319488.0000
Orbital Inclination(rad):   0.9616885086
Rate of Right Ascen(r/s):  -0.7851755629E-008
SQRT(A)  (m 1/2):           5153.571777
Right Ascen at Week(rad):   0.2164872332E+001
Argument of Perigee(rad):  -0.754435420
Mean Anom(rad):            -0.2720839999E+001
Af0(s):                     0.1535415649E-003
Af1(s/s):                   0.0000000000E+000
week:                        216

******** Week 216 almanac for PRN-23 ********
ID:                         23
Health:                     000
Eccentricity:               0.3201961517E-002
Time of Applicability(s):  319488.0000
Orbital Inclination(rad):   0.9742419842
Rate of Right Ascen(r/s):  -0.7668890869E-008
SQRT(A)  (m 1/2):           5153.611816
Right Ascen at Week(rad):  -0.3014268878E+001
Argument of Perigee(rad):  -3.096355950
Mean Anom(rad):             0.5319295596E+000
Af0(s):                     0.2861022949E-004
Af1(s/s):                   0.3637978807E-011
week:                        216

******** Week 216 almanac for PRN-24 ********
ID:                         24
Health:                     000
Eccentricity:               0.1390314102E-001
Time of Applicability(s):  319488.0000
Orbital Inclination(rad):   0.9337412961
Rate of Right Ascen(r/s):  -0.8034620388E-008
SQRT(A)  (m 1/2):           5153.594238
Right Ascen at Week(rad):  -0.9790703535E+000
Argument of Perigee(rad):   0.894289078
Mean Anom(rad):             0.1715590856E+001
Af0(s):                    -0.2088546753E-003
Af1(s/s):                  -0.1455191523E-010
week:                        216

******** Week 216 almanac for PRN-25 ********
ID:                         25
Health:                     000
Eccentricity:               0.1108598709E-001
Time of Applicability(s):  319488.0000
Orbital Inclination(rad):   0.9535092751
Rate of Right Ascen(r/s):  -0.7977475151E-008
SQRT(A)  (m 1/2):           5153.681152
Right Ascen at Week(rad):   0.1437148251E+000
Argument of Perigee(rad):   1.050692950
Mean Anom(rad):            -0.1386642233E+000
Af0(s):                     0.4463195801E-003
Af1(s/s):                   0.3637978807E-011
week:                        216

******** Week 216 almanac for PRN-26 ********
ID:                         26
Health:                     000
Eccentricity:               0.7914066315E-002
Time of Applicability(s):  319488.0000
Orbital Inclination(rad):   0.9342865784
Rate of Right Ascen(r/s):  -0.8126052768E-008
SQRT(A)  (m 1/2):           5153.645508
Right Ascen at Week(rad):   0.8798967728E-001
Argument of Perigee(rad):   0.462827770
Mean Anom(rad):            -0.8487613820E+000
Af0(s):                     0.2403259277E-003
Af1(s/s):                   0.0000000000E+000
week:                        216

******** Week 216 almanac for PRN-27 ********
ID:                         27
Health:                     000
Eccentricity:               0.1157426834E-001
Time of Applicability(s):  319488.0000
Orbital Inclination(rad):   0.9673630391
Rate of Right Ascen(r/s):  -0.8217485148E-008
SQRT(A)  (m 1/2):           5153.613770
Right Ascen at Week(rad):   0.1199523916E+001
Argument of Perigee(rad):   0.739647636
Mean Anom(rad):            -0.2655423733E+001
Af0(s):                     0.2574920654E-004
Af1(s/s):                  -0.7275957614E-011
week:                        216

******** Week 216 almanac for PRN-28 ********
ID:                         28
Health:                     000
Eccentricity:               0.6856918335E-003
Time of Applicability(s):  319488.0000
Orbital Inclination(rad):   0.9613529503
Rate of Right Ascen(r/s):  -0.7703178011E-008
SQRT(A)  (m 1/2):           5153.638672
Right Ascen at Week(rad):  -0.9256165908E+000
Argument of Perigee(rad):   1.702121336
Mean Anom(rad):            -0.7632018808E+000
Af0(s):                     0.8106231689E-004
Af1(s/s):                   0.3637978807E-011
week:                        216

******** Week 216 almanac for PRN-29 ********
ID:                         29
Health:                     000
Eccentricity:               0.2561092377E-002
Time of Applicability(s):  319488.0000
Orbital Inclination(rad):   0.9762613261
Rate of Right Ascen(r/s):  -0.8114623721E-008
SQRT(A)  (m 1/2):           5153.710938
Right Ascen at Week(rad):   0.1279384169E+001
Argument of Perigee(rad):   2.400368343
Mean Anom(rad):            -0.2592055272E+001
Af0(s):                    -0.6017684937E-003
Af1(s/s):                   0.0000000000E+000
week:                        216

******** Week 216 almanac for PRN-30 ********
ID:                         30
Health:                     000
Eccentricity:               0.6520748138E-002
Time of Applicability(s):  319488.0000
Orbital Inclination(rad):   0.9353591665
Rate of Right Ascen(r/s):  -0.7943188009E-008
SQRT(A)  (m 1/2):           5153.535156
Right Ascen at Week(rad):  -0.8822666533E+000
Argument of Perigee(rad):  -2.578804464
Mean Anom(rad):             0.6625916912E+000
Af0(s):                    -0.5140304565E-003
Af1(s/s):                   0.3637978807E-011
week:                        216

******** Week 216 almanac for PRN-31 ********
ID:                         31
Health:                     000
Eccentricity:               0.1057767868E-001
Time of Applicability(s):  319488.0000
Orbital Inclination(rad):   0.9543242024
Rate of Right Ascen(r/s):  -0.7771752296E-008
SQRT(A)  (m 1/2):           5154.171875
Right Ascen at Week(rad):  -0.8683046568E+000
Argument of Perigee(rad):   0.532394697
Mean Anom(rad):            -0.1450697915E+000
Af0(s):                    -0.2174377441E-003
Af1(s/s):                   0.0000000000E+000
week:                        216

******** Week 216 almanac for PRN-32 ********
ID:                         32
Health:                     000
Eccentricity:               0.6919384003E-002
Time of Applicability(s):  319488.0000
Orbital Inclination(rad):   0.9593815453
Rate of Right Ascen(r/s):  -0.8057478483E-008
SQRT(A)  (m 1/2):           5153.687012
Right Ascen at Week(rad):  -0.1947290115E+001
Argument of Perigee(rad):  -2.202044027
Mean Anom(rad):            -0.2039306492E+001
Af0(s):                    -0.4892349243E-003
Af1(s/s):                  -0.7275957614E-011
week:                        216

